BEIDOU-3S IGSO-1S       
1 40549U 15019A   26166.82635402 -.00000176  00000+0  00000+0 0  9992
2 40549  49.1982 295.4779 0039129 191.2825 166.3811  1.00250244 41056
NAVSTAR 74 (USA 262)    
1 40730U 15033A   26165.72805943 -.00000015  00000+0  00000+0 0  9999
2 40730  53.9843 267.1880 0115073  30.2246 330.4667  2.00556296 79947
BEIDOU-3S M2S           
1 40748U 15037A   26166.71248522 -.00000069  00000+0  00000+0 0  9995
2 40748  54.8727 302.0977 0008241 259.7017 100.1902  1.86232065 74098
BEIDOU-3S M1S           
1 40749U 15037B   26166.38318008 -.00000069  00000+0  00000+0 0  9996
2 40749  54.8691 302.0961 0003458  61.7517 298.2671  1.86254745 74094
GSAT0205 (GALILEO 9)    
1 40889U 15045A   26144.30399159 -.00000014  00000+0  00000+0 0  9994
2 40889  54.9357 222.4171 0006405 263.0112  96.9692  1.67409242 66562
GSAT0206 (GALILEO 10)   
1 40890U 15045B   26166.69756315  .00000052  00000+0  00000+0 0  9994
2 40890  54.9450 221.6455 0001791 333.6365  26.4548  1.70473766 67016
BEIDOU-3S IGSO-2S       
1 40938U 15053A   26166.82613653 -.00000128  00000+0  00000+0 0  9993
2 40938  49.2239 258.7990 0065676 192.1192 205.8375  1.00258936 39343
NAVSTAR 75 (USA 265)    
1 41019U 15062A   26166.28284428 -.00000065  00000+0  00000+0 0  9998
2 41019  56.9581  30.8845 0111862 231.0590 127.9959  2.00566888 77793
GSAT-15                 
1 41028U 15065A   26166.34889123 -.00000254  00000+0  00000+0 0  9991
2 41028   0.0749 265.5559 0004058 161.7787  55.3896  1.00270843 38785
GSAT0209 (GALILEO 12)   
1 41174U 15079A   26166.27899133 -.00000013  00000+0  00000+0 0  9995
2 41174  55.8263 101.3143 0005316 342.9908  16.9497  1.70473583 64746
GSAT0208 (GALILEO 11)   
1 41175U 15079B   26165.32611699 -.00000010  00000+0  00000+0 0  9997
2 41175  55.8243 101.3373 0004862 343.1705  16.7693  1.70473576 65146
IRNSS-1E                
1 41241U 16003A   26165.65025189 -.00000320  00000+0  00000+0 0  9992
2 41241  33.2222  59.7855 0023517 150.0031  38.8029  1.00279169 38056
NAVSTAR 76 (USA 266)    
1 41328U 16007A   26161.88615663 -.00000012  00000+0  00000+0 0  9993
2 41328  55.5202  89.7095 0096051 247.3753 111.5952  2.00551966 75717
COSMOS 2514 [GLONASS-M] 
1 41330U 16008A   26166.87737842 -.00000054  00000+0  00000+0 0  9991
2 41330  65.0225 313.0514 0011235 197.9277 162.0167  2.13102508 80591
BEIDOU-2 IGSO-6         
1 41434U 16021A   26165.62664249 -.00000152  00000+0  00000+0 0  9992
2 41434  60.2220  38.0652 0057107 231.4956 311.9910  1.00259627 37459
IRNSS-1G                
1 41469U 16027A   26166.78365049 -.00000337  00000+0  00000+0 0  9995
2 41469   5.1946  97.5053 0007544 354.7633 223.4187  1.00266762 37165
GSAT0211 (GALILEO 14)   
1 41549U 16030A   26165.45012091  .00000059  00000+0  00000+0 0  9997
2 41549  55.0959 221.7703 0002887 323.8922  36.1904  1.70473900 62624
GSAT0210 (GALILEO 13)   
1 41550U 16030B   26165.70738424  .00000058  00000+0  00000+0 0  9991
2 41550  55.0955 221.7612 0004648 244.9793 115.0745  1.70473923 62622
BEIDOU-2 G7             
1 41586U 16037A   26166.69055863 -.00000352  00000+0  00000+0 0  9993
2 41586   1.7166  69.3630 0006758   4.5911 189.0272  1.00264308  6874
EUTELSAT 117 WEST B     
1 41589U 16038B   26166.01642035 -.00000006  00000+0  00000+0 0  9992
2 41589   0.0044 166.0114 0000447 257.2085  88.9985  1.00269365 36648
GSAT0207 (GALILEO 15)   
1 41859U 16069A   26166.57222481 -.00000014  00000+0  00000+0 0  9995
2 41859  55.4979 101.1309 0005289 329.9207  30.0086  1.70473545 59376
GSAT0212 (GALILEO 16)   
1 41860U 16069B   26165.25248100 -.00000011  00000+0  00000+0 0  9994
2 41860  55.4947 101.1626 0004642 358.3825   1.5720  1.70473713 59600
GSAT0213 (GALILEO 17)   
1 41861U 16069C   26166.20630291 -.00000013  00000+0  00000+0 0  9999
2 41861  55.4975 101.1440 0004958 312.6321  47.2844  1.70474116 59488
GSAT0214 (GALILEO 18)   
1 41862U 16069D   26165.17933449 -.00000010  00000+0  00000+0 0  9993
2 41862  55.4956 101.1651 0004255 319.5735  40.3509  1.70473798 59596
SES-15                  
1 42709U 17026A   26166.51861343  .00000063  00000+0  00000+0 0  9997
2 42709   0.0208 331.9287 0000424  56.5905 292.8100  1.00267812  7418
QZS-2 (MICHIBIKI-2)     
1 42738U 17028A   26166.51989272 -.00000144  00000+0  00000+0 0  9994
2 42738  39.4302 243.1796 0760513 269.2356  80.1810  1.00284423  7609
QZS-3 (MICHIBIKI-3)     
1 42917U 17048A   26166.40600233  .00000000  00000+0  00000+0 0  9990
2 42917   0.0286 151.4721 0002440 301.5367  83.7722  1.00263567 32247
COSMOS 2522 [GLONASS-M] 
1 42939U 17055A   26164.36890624  .00000114  00000+0  00000+0 0  9996
2 42939  64.0787 192.0144 0010818 240.5111 119.4561  2.13101904 67892
QZS-4 (MICHIBIKI-4)     
1 42965U 17062A   26166.35591125 -.00000342  00000+0  00000+0 0  9992
2 42965  40.1089 343.5053 0745223 271.7370 273.6485  1.00250711 31784
BEIDOU-3 M1             
1 43001U 17069A   26164.37433310 -.00000055  00000+0  00000+0 0  9993
2 43001  56.6884  63.2107 0010559 324.8482  35.1090  1.86231168 58532
BEIDOU-3 M2             
1 43002U 17069B   26163.77611076 -.00000055  00000+0  00000+0 0  9994
2 43002  56.6872  63.2666 0009220 350.0125   9.9939  1.86230859 58513
